# From MPC104795
65P/Gunn,e,9.1814,62.0229,213.8330,3.884941,0.1287145,0.24969354,146.3736,11/28.0/2020,2000,g  5.0,6.0
# From MPC109147
66P/du Toit,e,18.6557,21.8544,257.3336,6.064490,0.0659952,0.78688220,60.9672,11/28.0/2020,2000,g  9.0,4.0
# From MPC 89011
67P/Churyumov-Gerasimenko,e,3.8721,36.4456,22.0422,3.459164,0.1531960,0.65044392,308.0835,11/28.0/2020,2000,g 11.0,4.0
# From MPC 75716
68P/Klemola,e,11.1101,175.0737,153.0984,4.951309,0.0894590,0.63760973,34.4333,11/28.0/2020,2000,g 10.0,4.0
# From MPC114607
69P/Taylor,e,22.0332,104.8291,343.4835,3.888525,0.1285366,0.41304621,79.7954,11/28.0/2020,2000,g  9.5,12.0
# From MPC 92276
70P/Kojima,e,6.5982,119.2679,1.8512,3.675929,0.1398471,0.45349113,312.4259,11/28.0/2020,2000,g 11.0,6.0
# From MPC107051
71P/Clark,e,9.4395,59.4289,209.0316,3.138307,0.1772805,0.49408708,220.9483,11/28.0/2020,2000,g  9.8,6.0
# From MPC 89011
72P/Denning-Fujikawa,e,10.9359,26.6896,346.6775,4.311335,0.1100998,0.81821141,257.5913,11/28.0/2020,2000,g 17.5,10.0
# From MPC106348
73P/Schwassmann-Wachmann,e,11.2316,69.6416,199.4532,3.093062,0.1811846,0.68562567,244.8497,11/28.0/2020,2000,g 11.5,6.0
# From MPC106348
73P-T/Schwassmann-Wachmann,e,11.2337,69.6442,199.4347,3.094623,0.1810475,0.68582853,244.6654,11/28.0/2020,2000,g 11.5,6.0
# From MPEC 2020-M07
74P/Smirnova-Chernykh,e,6.4714,76.1426,95.7042,4.247490,0.1125915,0.15363477,111.0246,11/28.0/2020,2000,g  5.0,6.0
# From MPEC 2020-SI8
76P/West-Kohoutek-Ikemura,e,30.4575,84.1206,359.9902,3.473520,0.1522472,0.53810581,60.7332,11/28.0/2020,2000,g  8.0,12.0
# From MPC100283
77P/Longmore,e,24.3217,14.7912,196.8571,3.621060,0.1430377,0.35223332,237.5206,11/28.0/2020,2000,g  7.0,8.0
# From MPEC 2016-U66
78P/Gehrels,e,6.2497,210.5271,192.6439,3.739489,0.1362968,0.46184617,82.5032,11/28.0/2020,2000,g  9.0,4.0
# From MPC 94675
79P/du Toit-Hartley,e,3.1480,280.5280,281.8142,2.942789,0.1952385,0.61891869,157.5547,11/28.0/2020,2000,g 16.0,4.0
# From MPEC 2014-P41
80P/Peters-Hartley,e,29.9377,259.8206,339.2531,4.024334,0.1220852,0.59896181,269.5734,11/28.0/2020,2000,g  9.0,4.0
# From MPC105241
81P/Wild,e,3.2368,136.1013,41.7004,3.450917,0.1537454,0.53708610,245.0274,11/28.0/2020,2000,g  7.0,6.0
# From MPEC 2020-L06
82P/Gehrels,e,1.1285,239.3102,226.7905,4.136201,0.1171660,0.12171483,103.8377,11/28.0/2020,2000,g  5.0,8.0
# From MPEC 2020-SI8
84P/Giclas,e,7.5522,108.1749,281.5694,3.548490,0.1474479,0.51560532,26.1233,11/28.0/2020,2000,g  9.5,8.0
# From MPC109147
86P/Wild,e,15.4742,72.3675,179.3458,3.603413,0.1440898,0.37255147,297.1150,11/28.0/2020,2000,g 11.0,6.0
# From MPEC 2020-SI8
87P/Bus,e,2.6033,181.8635,24.9726,3.439235,0.1545295,0.38939800,31.3092,11/28.0/2020,2000,g  7.2,10.0
# From MPEC 2019-JE2
88P/Howell,e,4.3836,56.6819,235.9072,3.105686,0.1800810,0.56432687,11.2356,11/28.0/2020,2000,g 11.0,6.0
# From MPC100283
89P/Russell,e,12.0697,41.3985,250.3045,3.753995,0.1355076,0.40865500,195.5419,11/28.0/2020,2000,g 11.5,6.0
# From MPC107051
90P/Gehrels,e,9.6436,13.2091,29.0893,6.054098,0.0661652,0.50982281,83.2343,11/28.0/2020,2000,g  8.5,6.0
# From MPC105241
91P/Russell,e,14.0915,247.8277,354.8061,3.890564,0.1284356,0.33064122,2.3887,11/28.0/2020,2000,g  7.5,6.0
# From MPEC 2014-J58
92P/Sanguin,e,19.4868,181.3780,163.7298,5.345005,0.0797594,0.66069311,167.2179,11/28.0/2020,2000,g 12.0,6.0
# From NK 2707
93P/Lovas,e,12.2026,339.6374,74.8366,4.383759,0.1073826,0.61228235,146.9215,11/28.0/2020,2000,g  9.0,4.0
# From MPEC 2020-W26
94P/Russell,e,6.1878,70.8603,92.4836,3.507166,0.1500616,0.36476677,224.2374,11/28.0/2020,2000,g  9.0,6.0
# From MPC 75717
95P/Chiron,e,6.9351,209.2581,339.7701,13.69315,0.0194513,0.37801479,176.4174,11/28.0/2020,2000,g  6.5,2.0
# From MPEC 2017-T14
96P/Machholz,e,57.7819,94.0724,14.7086,3.027558,0.1870964,0.96161321,211.3404,11/28.0/2020,2000,g  9.0,4.0
# From MPC 77020
97P/Metcalf-Brewington,e,17.9230,184.1307,229.7030,4.774534,0.0944730,0.46121275,318.0802,11/28.0/2020,2000,g  5.5,6.0
# From MPEC 2013-H38
98P/Takamizawa,e,10.5614,114.7113,157.9231,3.798820,0.1331162,0.56222978,354.9504,11/28.0/2020,2000,g  9.0,8.0
# From MPEC 2020-W26
99P/Kowal,e,4.3383,28.1140,174.9461,6.112044,0.0652265,0.23008949,327.3364,11/28.0/2020,2000,g  4.5,6.0
# From MPEC 2013-O31
100P/Hartley,e,25.5680,37.7096,181.9980,3.431997,0.1550185,0.41246551,263.7442,11/28.0/2020,2000,g  9.0,4.0
# From MPC115887
101P/Chernykh,e,5.0528,116.2308,277.6988,5.801088,0.0705407,0.59579336,22.6047,11/28.0/2020,2000,g 12.0,4.8
# From MPC 86232
102P/Shoemaker,e,25.8839,339.3655,20.5369,3.814078,0.1323182,0.45729522,352.6717,11/28.0/2020,2000,g  6.5,8.0
# From MPEC 2018-HA5
103P/Hartley,e,13.5966,219.7282,181.2888,3.476403,0.1520578,0.69304231,200.4703,11/28.0/2020,2000,g  8.5,8.0
# From MPC100283
104P/Kowal,e,5.7185,207.7116,226.8413,3.208755,0.1714744,0.66648363,289.9101,11/28.0/2020,2000,g 16.0,4.0
# From MPC109147
105P/Singer Brewster,e,9.1721,192.4175,46.4776,3.466815,0.1526891,0.40972543,128.4231,11/28.0/2020,2000,g 11.5,6.0
# From MPC 92276
106P/Schuster,e,19.5375,48.9251,353.6184,3.765107,0.1349081,0.59404299,324.4232,11/28.0/2020,2000,g 14.0,4.8
# From MPEC 2015-M77
107P/Wilson-Harrington,e,2.7984,266.8056,95.3848,2.625587,0.2316671,0.63138464,212.9414,11/28.0/2020,2000,g  9.0,4.0
# From MPC 89313
108P/Ciffreo,e,11.4381,50.3482,354.3342,3.742500,0.1361324,0.55642294,321.0702,11/28.0/2020,2000,g  8.0,12.0
# From  105, 420
109P/Swift-Tuttle,e,113.9689,139.0536,152.8903,26.12368,0.0073816,0.96301944,75.4727,11/28.0/2020,2000,g  4.0,6.0
# From MPEC 2020-W26
110P/Hartley,e,11.7073,287.5338,167.4559,3.600729,0.1442508,0.31796843,313.2105,11/28.0/2020,2000,g  1.0,12.0
# From MPC 75718
111P/Helin-Roman-Crockett,e,4.2273,89.7658,1.0653,4.145836,0.1167578,0.10571661,336.6310,11/28.0/2020,2000,g  5.0,8.0
# From MPC118097
112P/Urata-Niijima,e,24.1918,31.8420,21.4958,3.526130,0.1488527,0.58980202,43.7680,11/28.0/2020,2000,g 14.0,6.0
# From MPEC 2015-E14
113P/Spitaler,e,5.3049,306.7154,115.3320,3.704663,0.1382232,0.42335799,284.1670,11/28.0/2020,2000,g 13.5,4.0
# From MPEC 2019-TG9
114P/Wiseman-Skiff,e,18.2723,271.0562,172.7910,3.546302,0.1475844,0.55472288,47.0719,11/28.0/2020,2000,g 11.5,6.0
# From MPEC 2020-SI8
115P/Maury,e,11.6765,176.0097,120.9978,4.274680,0.1115189,0.51883780,13.5289,11/28.0/2020,2000,g 10.5,6.0
# From MPC106348
116P/Wild,e,3.6037,20.9915,173.3671,3.489105,0.1512283,0.37074366,269.8612,11/28.0/2020,2000,g  2.5,10.0
# From MPEC 2015-S97
117P/Helin-Roman-Alu,e,8.7018,58.8488,222.7825,4.085961,0.1193336,0.25576459,290.0737,11/28.0/2020,2000,g  9.0,4.0
# From MPC 95735
118P/Shoemaker-Levy,e,9.9403,142.2944,313.4790,3.379681,0.1586319,0.45746460,245.8180,11/28.0/2020,2000,g 12.0,4.0
# From MPC 84628
119P/Parker-Hartley,e,7.4479,104.8468,321.3573,3.827580,0.1316187,0.39343472,278.6248,11/28.0/2020,2000,g  3.5,8.0
# From MPEC 2020-SI8
120P/Mueller,e,8.4895,358.6741,36.5324,3.962333,0.1249619,0.37461667,339.9995,11/28.0/2020,2000,g 12.0,4.0
# From MPEC 2020-SI8
121P/Shoemaker-Holt,e,20.1632,94.1357,11.2915,4.585809,0.1003645,0.18528221,265.5411,11/28.0/2020,2000,g  6.5,8.0
# From MPC 75718
122P/de Vico,e,84.7656,79.5314,13.0148,17.63003,0.0133145,0.96226685,122.5805,11/28.0/2020,2000,g  7.5,5.2
# From MPC114608
123P/West-Hartley,e,15.3164,46.3533,103.5214,3.869254,0.1294981,0.44827219,85.6488,11/28.0/2020,2000,g  4.0,10.0
# From MPEC 2020-SI8
124P/Mrkos,e,31.5127,0.3654,183.8781,3.318306,0.1630532,0.50345570,35.0697,11/28.0/2020,2000,g 13.5,2.8
# From MPEC 2015-M77
125P/Spacewatch,e,9.9868,153.1565,87.2307,3.125396,0.1783801,0.51292781,146.8630,11/28.0/2020,2000,g  9.0,4.0
# From MPC 66205
126P/IRAS,e,45.8601,357.8542,356.5086,5.641312,0.0735587,0.69613807,290.1609,11/28.0/2020,2000,g  9.0,4.0
# From MPC 84321
127P/Holt-Olmstead,e,14.2975,13.6440,6.5156,3.450088,0.1538009,0.35984584,264.4526,11/28.0/2020,2000,g 11.0,6.0
# From MPC 89014
128P/Shoemaker-Holt,e,4.3665,214.2938,210.3466,4.493241,0.1034819,0.32050910,146.8094,11/28.0/2020,2000,g  8.5,4.0
# From MPEC 2019-TG9
129P/Shoemaker-Levy,e,3.4427,184.8882,308.0142,4.282095,0.1112294,0.08393528,278.0647,11/28.0/2020,2000,g 11.0,4.0
# From MPC 78188
130P/McNaught-Hughes,e,6.0633,70.2383,245.9800,3.383887,0.1583362,0.46133156,164.7686,11/28.0/2020,2000,g 10.0,6.0
# From MPC102101
131P/Mueller,e,7.3540,214.1675,179.0355,3.681223,0.1395455,0.34371971,94.0264,11/28.0/2020,2000,g 11.0,4.0
# From MPEC 2020-HN5
132P/Helin-Roman-Alu,e,5.3788,174.0565,216.3681,3.886770,0.1286237,0.56521398,314.9625,11/28.0/2020,2000,g 11.0,6.0
# From MPC 94676
133P/Elst-Pizarro,e,1.3891,160.1186,131.7660,3.164169,0.1751114,0.15708726,139.7973,11/28.0/2020,2000,g 15.4,2.0
# From MPC 89012
134P/Kowal-Vavrova,e,4.3423,202.0790,18.8800,6.258746,0.0629467,0.58647918,150.0579,11/28.0/2020,2000,g 11.5,4.0
# From MPEC 2015-E14
135P/Shoemaker-Levy,e,6.0614,213.0387,22.2662,3.803924,0.1328484,0.29543492,294.2251,11/28.0/2020,2000,g  9.0,4.0
# From MPEC 2020-W26
136P/Mueller,e,9.4241,137.4460,224.8840,4.194575,0.1147287,0.29243468,188.2898,11/28.0/2020,2000,g 11.0,4.0
# From MPEC 2020-HN5
137P/Shoemaker-Levy,e,4.8534,233.0527,141.0165,4.520558,0.1025454,0.57333182,73.3661,11/28.0/2020,2000,g 11.0,4.0
# From MPEC 2016-U66
138P/Shoemaker-Levy,e,10.0910,309.3317,95.5630,3.622836,0.1429325,0.53032747,82.2182,11/28.0/2020,2000,g 15.0,6.0
# From MPEC 2020-HN5
139P/Vaisala-Oterma,e,2.3335,242.1873,165.7581,4.523899,0.1024318,0.24649815,111.0911,11/28.0/2020,2000,g  9.5,4.0
# From MPEC 2015-E14
140P/Bowell-Skiff,e,3.8300,343.3008,172.9036,6.433355,0.0604015,0.69128117,117.2267,11/28.0/2020,2000,g 11.5,6.0
# From MPC105242
141P/Machholz,e,13.9453,241.8488,153.5450,3.055309,0.1845531,0.73556225,356.7868,11/28.0/2020,2000,g 12.0,12.0
# From MPC 95735
141P-H/Machholz,e,12.8431,246.0900,149.4500,3.008012,0.1889230,0.74682218,359.9270,08/24.0/2015,2000,g 18.5,4.0
# From MPC 71683
142P/Ge-Wang,e,12.2440,175.9534,173.9624,5.008994,0.0879181,0.49835080,345.4332,11/28.0/2020,2000,g  9.0,4.0
# From MPEC 2020-W26
